{"type": "FeatureCollection", "features": [ {"type": "Feature", "properties": {"norad_id": 67162, "name": "ARIANE 6 R/B", "group": "last-30-days", "lat": -14.08704059300926, "lon": -62.38761442976664, "alt_km": 22919.799258033123, "timestamp": "2025-12-19T14:48:34.967999+00:00", "meta": {"OBJECT_NAME": "ARIANE 6 R/B", "OBJECT_ID": "2025-302C", "EPOCH": "2025-12-18T17:20:48.348384", "MEAN_MOTION": 1.73130153, "ECCENTRICITY": 4.788e-05, "INCLINATION": 54.2367, "RA_OF_ASC_NODE": 107.242, "ARG_OF_PERICENTER": 146.0337, "MEAN_ANOMALY": 213.929, "EPHEMERIS_TYPE": 0, "CLASSIFICATION_TYPE": "U", "NORAD_CAT_ID": 67162, "ELEMENT_SET_NO": 999, "REV_AT_EPOCH": 7, "BSTAR": 0, "MEAN_MOTION_DOT": -6e-08, "MEAN_MOTION_DDOT": 0}, "tle": {"line1": "1 67162U 25302C   25352.72278181 -.00000006  00000+0  00000+0 0  9992", "line2": "2 67162  54.2367 107.2420 0000478 146.0337 213.9290  1.73130153    77"}}, "geometry": {"type": "Point", "coordinates": [-62.38761442976664, -14.08704059300926]}}, {"type": "Feature", "properties": {"norad_id": 67219, "name": "DISKSAT A", "group": "last-30-days", "lat": 2.926143087411042, "lon": 131.15751005480823, "alt_km": 549.3794589306672, "timestamp": "2025-12-19T14:48:34.968010+00:00", "meta": {"OBJECT_NAME": "DISKSAT A", "OBJECT_ID": "2025-305A", "EPOCH": "2025-12-18T06:11:23.597664", "MEAN_MOTION": 15.05868419, "ECCENTRICITY": 0.00043552, "INCLINATION": 45.0103, "RA_OF_ASC_NODE": 321.2665, "ARG_OF_PERICENTER": 276.2808, "MEAN_ANOMALY": 83.7571, "EPHEMERIS_TYPE": 0, "CLASSIFICATION_TYPE": "U", "NORAD_CAT_ID": 67219, "ELEMENT_SET_NO": 999, "REV_AT_EPOCH": 1, "BSTAR": 6.4032814e-05, "MEAN_MOTION_DOT": 7.05e-06, "MEAN_MOTION_DDOT": 0}, "tle": {"line1": "1 67219U 25305A   25352.25791201  .00000705  00000+0  64033-4 0  9995", "line2": "2 67219  45.0103 321.2665 0004355 276.2808  83.7571 15.05868419    14"}}, "geometry": {"type": "Point", "coordinates": [131.15751005480823, 2.926143087411042]}}, {"type": "Feature", "properties": {"norad_id": 67220, "name": "DISKSAT B", "group": "last-30-days", "lat": 4.486952359271192, "lon": 129.59367161351116, "alt_km": 551.0608768001603, "timestamp": "2025-12-19T14:48:34.968022+00:00", "meta": {"OBJECT_NAME": "DISKSAT B", "OBJECT_ID": "2025-305B", "EPOCH": "2025-12-18T06:11:23.538912", "MEAN_MOTION": 15.05411903, "ECCENTRICITY": 0.0003917, "INCLINATION": 45.0065, "RA_OF_ASC_NODE": 321.27, "ARG_OF_PERICENTER": 288.0087, "MEAN_ANOMALY": 72.0361, "EPHEMERIS_TYPE": 0, "CLASSIFICATION_TYPE": "U", "NORAD_CAT_ID": 67220, "ELEMENT_SET_NO": 999, "REV_AT_EPOCH": 1, "BSTAR": 0.00011832, "MEAN_MOTION_DOT": 1.486e-05, "MEAN_MOTION_DDOT": 0}, "tle": {"line1": "1 67220U 25305B   25352.25791133  .00001486  00000+0  11832-3 0  9996", "line2": "2 67220  45.0065 321.2700 0003917 288.0087  72.0361 15.05411903    16"}}, "geometry": {"type": "Point", "coordinates": [129.59367161351116, 4.486952359271192]}}, {"type": "Feature", "properties": {"norad_id": 67221, "name": "DISKSAT C", "group": "last-30-days", "lat": -32.04428240484088, "lon": 172.62293153434067, "alt_km": 515.4761881902277, "timestamp": "2025-12-19T14:48:34.968033+00:00", "meta": {"OBJECT_NAME": "DISKSAT C", "OBJECT_ID": "2025-305C", "EPOCH": "2025-12-18T06:11:31.580160", "MEAN_MOTION": 15.16973586, "ECCENTRICITY": 0.00625938, "INCLINATION": 45.0151, "RA_OF_ASC_NODE": 321.1654, "ARG_OF_PERICENTER": 307.7869, "MEAN_ANOMALY": 51.7353, "EPHEMERIS_TYPE": 0, "CLASSIFICATION_TYPE": "U", "NORAD_CAT_ID": 67221, "ELEMENT_SET_NO": 999, "REV_AT_EPOCH": 1, "BSTAR": 0.00014323237, "MEAN_MOTION_DOT": 2.734e-05, "MEAN_MOTION_DDOT": 0}, "tle": {"line1": "1 67221U 25305C   25352.25800440  .00002734  00000+0  14323-3 0  9994", "line2": "2 67221  45.0151 321.1654 0062593 307.7869  51.7353 15.16973586    19"}}, "geometry": {"type": "Point", "coordinates": [172.62293153434067, -32.04428240484088]}}, {"type": "Feature", "properties": {"norad_id": 67222, "name": "DISKSAT D", "group": "last-30-days", "lat": 1.2278420229264209, "lon": 132.61763217162485, "alt_km": 545.1587519429613, "timestamp": "2025-12-19T14:48:34.968045+00:00", "meta": {"OBJECT_NAME": "DISKSAT D", "OBJECT_ID": "2025-305D", "EPOCH": "2025-12-18T07:46:51.908160", "MEAN_MOTION": 15.06357331, "ECCENTRICITY": 0.00088258, "INCLINATION": 45.0527, "RA_OF_ASC_NODE": 320.6724, "ARG_OF_PERICENTER": 241.9782, "MEAN_ANOMALY": 118.0201, "EPHEMERIS_TYPE": 0, "CLASSIFICATION_TYPE": "U", "NORAD_CAT_ID": 67222, "ELEMENT_SET_NO": 999, "REV_AT_EPOCH": 1, "BSTAR": 0.00029211464, "MEAN_MOTION_DOT": 4.13e-05, "MEAN_MOTION_DDOT": 0}, "tle": {"line1": "1 67222U 25305D   25352.32421190  .00004130  00000+0  29211-3 0  9998", "line2": "2 67222  45.0527 320.6724 0008825 241.9782 118.0201 15.06357331    12"}}, "geometry": {"type": "Point", "coordinates": [132.61763217162485, 1.2278420229264209]}}, {"type": "Feature", "properties": {"norad_id": 67223, "name": "ELECTRON KICK STAGE R/B", "group": "last-30-days", "lat": 15.642837172239506, "lon": -30.10167561107884, "alt_km": 483.301916415332, "timestamp": "2025-12-19T14:48:34.968055+00:00", "meta": {"OBJECT_NAME": "ELECTRON KICK STAGE R/B", "OBJECT_ID": "2025-305E", "EPOCH": "2025-12-18T06:11:27.945312", "MEAN_MOTION": 15.48092024, "ECCENTRICITY": 0.01803623, "INCLINATION": 44.9944, "RA_OF_ASC_NODE": 321.2861, "ARG_OF_PERICENTER": 136.421, "MEAN_ANOMALY": 225.1089, "EPHEMERIS_TYPE": 0, "CLASSIFICATION_TYPE": "U", "NORAD_CAT_ID": 67223, "ELEMENT_SET_NO": 999, "REV_AT_EPOCH": 1, "BSTAR": 0.00018043632, "MEAN_MOTION_DOT": 0.00018378, "MEAN_MOTION_DDOT": 0}, "tle": {"line1": "1 67223U 25305E   25352.25796233  .00018378  00000+0  18044-3 0  9995", "line2": "2 67223  44.9944 321.2861 0180362 136.4210 225.1089 15.48092024    19"}}, "geometry": {"type": "Point", "coordinates": [-30.10167561107884, 15.642837172239506]}}, {"type": "Feature", "properties": {"norad_id": 67224, "name": "ELECTRON R/B", "group": "last-30-days", "lat": 44.02711569746728, "lon": 58.23086158036857, "alt_km": 542.6985227177956, "timestamp": "2025-12-19T14:48:34.968065+00:00", "meta": {"OBJECT_NAME": "ELECTRON R/B", "OBJECT_ID": "2025-305F", "EPOCH": "2025-12-18T18:27:13.126752", "MEAN_MOTION": 15.64663678, "ECCENTRICITY": 0.0262888, "INCLINATION": 45.0188, "RA_OF_ASC_NODE": 318.3021, "ARG_OF_PERICENTER": 280.1207, "MEAN_ANOMALY": 77.0133, "EPHEMERIS_TYPE": 0, "CLASSIFICATION_TYPE": "U", "NORAD_CAT_ID": 67224, "ELEMENT_SET_NO": 999, "REV_AT_EPOCH": 9, "BSTAR": 0.00022935, "MEAN_MOTION_DOT": 0.00172783, "MEAN_MOTION_DDOT": 8.6369e-06}, "tle": {"line1": "1 67224U 25305F   25352.76890193  .00172783  86369-5  22935-3 0  9995", "line2": "2 67224  45.0188 318.3021 0262888 280.1207  77.0133 15.64663678    93"}}, "geometry": {"type": "Point", "coordinates": [58.23086158036857, 44.02711569746728]}}]}